ONEWEB-0271             
1 48989U 21060Y   25030.52695994  .00000060  00000+0  12384-3 0  9992
2 48989  87.9130 328.9324 0001741  90.3623 269.7708 13.16596373173526
ONEWEB-0272             
1 48990U 21060Z   25030.54911848 -.00000056  00000+0 -18084-3 0  9995
2 48990  87.9132 328.9591 0001832  87.5631 272.5709 13.16595482173471
ONEWEB-0273             
1 48991U 21060AA  25030.57129793  .00000074  00000+0  16050-3 0  9998
2 48991  87.9128 328.9403 0001958  85.2448 274.8906 13.16594594173454
ONEWEB-0274             
1 48992U 21060AB  25030.52062125  .00000090  00000+0  20174-3 0  9999
2 48992  87.9136 328.9795 0001352  82.5627 277.5657 13.16594879173487
ONEWEB-0275             
1 48993U 21060AC  25030.58554188  .00000032  00000+0  51093-4 0  9992
2 48993  87.9134 328.9314 0001729  88.3990 271.7339 13.16592825173424
ONEWEB-0276             
1 48994U 21060AD  25030.54278233 -.00000007  00000+0 -51256-4 0  9998
2 48994  87.9129 328.9370 0001939  86.6404 273.4949 13.16596649173430
ONEWEB-0277             
1 48995U 21060AE  25030.55546200  .00000004  00000+0 -22232-4 0  9990
2 48995  87.9128 328.9720 0001777  95.0146 265.1187 13.16594818173423
ONEWEB-0278             
1 48996U 21060AF  25030.54595018  .00000018  00000+0  12573-4 0  9992
2 48996  87.9129 328.9330 0001989  77.2274 282.9079 13.16596255173559
ONEWEB-0279             
1 48997U 21060AG  25030.55386546  .00000012  00000+0 -92631-6 0  9998
2 48997  87.9128 328.9283 0001654  90.7967 269.3353 13.16596512173486
ONEWEB-0280             
1 48998U 21060AH  25030.56890889  .00000024  00000+0  28913-4 0  9992
2 48998  87.9128 328.9300 0002104  86.7226 273.4146 13.16593017173428
ONEWEB-0281             
1 48999U 21060AJ  25030.57445366  .00000081  00000+0  17869-3 0  9990
2 48999  87.9126 328.9283 0001619  77.3822 282.7490 13.16595780173496
ONEWEB-0282             
1 49000U 21060AK  25030.52853840 -.00000010  00000+0 -60425-4 0  9990
2 49000  87.9129 328.9540 0001933  86.8708 273.2644 13.16594965173463
ONEWEB-0283             
1 49001U 21060AL  25030.51745776  .00000079  00000+0  17219-3 0  9993
2 49001  87.9128 328.9603 0001605  85.8807 274.2508 13.16595306173479
ONEWEB-0284             
1 49002U 21060AM  25030.58711709  .00000086  00000+0  19225-3 0  9997
2 49002  87.9121 328.9169 0001993  77.2814 282.8540 13.16595469173463
ONEWEB-0285             
1 49075U 21075A   25030.58113580 -.00000318  00000+0 -92036-3 0  9997
2 49075  87.8847  90.7346 0001964 100.0883 260.0467 13.12444103169282
ONEWEB-0286             
1 49076U 21075B   25030.40014419  .00000099  00000+0  23908-3 0  9996
2 49076  87.8841  90.7661 0001879  94.0701 266.0642 13.12442001168615
ONEWEB-0287             
1 49077U 21075C   25030.46919695  .00000107  00000+0  24215-3 0  9995
2 49077  87.9080 106.0221 0001839  88.1773 271.9569 13.17646908167422
ONEWEB-0288             
1 49078U 21075D   25030.46259946  .00000455  00000+0  12286-2 0  9992
2 49078  87.8840  90.7566 0002043  96.4100 263.7261 13.12442934169249
ONEWEB-0289             
1 49079U 21075E   25030.27009002  .00000120  00000+0  27527-3 0  9992
2 49079  87.9080 106.0920 0001879 105.9721 254.1618 13.17648791167975
ONEWEB-0290             
1 49080U 21075F   25030.48103034  .00000070  00000+0  14595-3 0  9992
2 49080  87.9079 106.0080 0002562 108.7874 251.3535 13.17648485167418
ONEWEB-0291             
1 49081U 21075G   25030.46584272  .00000047  00000+0  88014-4 0  9990
2 49081  87.9077 106.0210 0002034  97.5462 262.5901 13.17649372167400
ONEWEB-0293             
1 49082U 21075H   25030.49115382  .00000081  00000+0  17556-3 0  9996
2 49082  87.9080 106.0414 0002058 103.6125 256.5236 13.17648758167436
ONEWEB-0294             
1 49083U 21075J   25030.39285906  .00010425  00000+0  28932-1 0  9997
2 49083  87.8843  90.7698 0003203  94.3677 265.7817 13.12392234168626
ONEWEB-0295             
1 49084U 21075K   25030.49030226  .00000051  00000+0  97529-4 0  9997
2 49084  87.9082 106.0214 0001954  90.9793 269.1562 13.17646972167394
ONEWEB-0296             
1 49085U 21075L   25030.60208937  .00000376  00000+0  10107-2 0  9992
2 49085  87.8842  90.7336 0002367  86.3942 273.7457 13.12450191168651
ONEWEB-0297             
1 49086U 21075M   25030.40419312 -.00000049  00000+0 -17269-3 0  9998
2 49086  87.8853  90.7970 0001860  98.8143 261.3196 13.12439838169239
ONEWEB-0298             
1 49087U 21075N   25030.49466300  .00000041  00000+0  73190-4 0  9993
2 49087  87.9080 106.0375 0001700  97.1065 263.0260 13.17648397167428
ONEWEB-0299             
1 49088U 21075P   25030.49621000  .00000122  00000+0  28220-3 0  9997
2 49088  87.9077 105.9967 0001713  96.8651 263.2675 13.17649739167402
ONEWEB-0300             
1 49089U 21075Q   25030.39609128  .00000234  00000+0  61622-3 0  9991
2 49089  87.8839  90.7670 0001658 109.1464 250.9844 13.12441942169255
ONEWEB-0301             
1 49090U 21075R   25030.53234581  .00000421  00000+0  11349-2 0  9994
2 49090  87.8842  90.7450 0001680 108.9826 251.1485 13.12443266168637
ONEWEB-0302             
1 49091U 21075S   25030.59561968  .00000170  00000+0  43691-3 0  9990
2 49091  87.8841  90.7324 0002317  96.1998 263.9395 13.12445114168627
ONEWEB-0304             
1 49092U 21075T   25030.47090050  .00000049  00000+0  92468-4 0  9999
2 49092  87.9078 106.0263 0001904  96.7379 263.3970 13.17648863167379
ONEWEB-0305             
1 49093U 21075U   25030.46415080  .00000077  00000+0  16523-3 0  9991
2 49093  87.9076 106.0087 0001739  87.2208 272.9122 13.17649350167405
ONEWEB-0308             
1 49094U 21075V   25030.58911084 -.00000070  00000+0 -22961-3 0  9998
2 49094  87.8843  90.7304 0001829 102.5180 257.6153 13.12445389168639
ONEWEB-0309             
1 49095U 21075W   25030.46752663  .00000069  00000+0  14335-3 0  9994
2 49095  87.9079 106.0199 0002435 100.7293 259.4112 13.17649890167377
ONEWEB-0310             
1 49096U 21075X   25030.60371228  .00000416  00000+0  11219-2 0  9998
2 49096  87.8853  90.7565 0002069 100.2349 259.9013 13.12444561169261
ONEWEB-0311             
1 49097U 21075Y   25030.47427504  .00000090  00000+0  19916-3 0  9994
2 49097  87.9079 106.0199 0001679  89.7430 270.3894 13.17650042167423
ONEWEB-0312             
1 49098U 21075Z   25030.48946125  .00000055  00000+0  10951-3 0  9992
2 49098  87.9078 106.0483 0002082  91.5294 268.6076 13.17648625167401
ONEWEB-0313             
1 49099U 21075AA  25030.49439374  .00000064  00000+0  13095-3 0  9999
2 49099  87.9080 106.0630 0001940  94.8050 265.3303 13.17647937167397
ONEWEB-0314             
1 49100U 21075AB  25030.46077396  .00000111  00000+0  25199-3 0  9992
2 49100  87.9073 106.0057 0002014  91.3259 268.8104 13.17649739167367
ONEWEB-0315             
1 49101U 21075AC  25030.57774698 -.00000535  00000+0 -15240-2 0  9991
2 49101  87.8838  90.7233 0001538  91.6299 268.5006 13.12442673169248
ONEWEB-0316             
1 49102U 21075AD  25030.47770472  .00000006  00000+0 -17741-4 0  9999
2 49102  87.9068  75.4642 0001814  91.4512 268.6828 13.18684720170952
ONEWEB-0317             
1 49103U 21075AE  25030.57126010 -.00000377  00000+0 -10848-2 0  9995
2 49103  87.8841  90.7382 0002195 112.2680 247.8681 13.12440154169266
ONEWEB-0318             
1 49104U 21075AF  25030.55041896  .00000029  00000+0  39754-4 0  9993
2 49104  87.9064  75.4372 0001772  88.9340 271.1995 13.18684731170926
ONEWEB-0319             
1 49105U 21075AG  25030.47596213  .00000089  00000+0  19542-3 0  9991
2 49105  87.9079 106.0446 0001690  87.0051 273.1274 13.17648817167409
ONEWEB-0323             
1 49106U 21075AH  25030.40906145 -.00000140  00000+0 -42463-3 0  9992
2 49106  87.8842  90.7571 0001698  76.7735 283.3582 13.12441818168602
ONEWEB-0329             
1 49107U 21075AJ  25030.48440070  .00000078  00000+0  16812-3 0  9998
2 49107  87.9078 106.0476 0001909  95.5140 264.6209 13.17648941167387
ONEWEB-0330             
1 49108U 21075AK  25030.48608718  .00000075  00000+0  15976-3 0  9991
2 49108  87.9080 106.0490 0002081  97.6436 262.4932 13.17651853167420
ONEWEB-0292             
1 49186U 21083A   25030.46834927  .00000067  00000+0  14888-3 0  9999
2 49186  87.8884  60.2184 0001691  90.0027 270.1296 13.13469431164934
ONEWEB-0303             
1 49187U 21083B   25030.39550395  .00000091  00000+0  19917-3 0  9991
2 49187  87.9066  75.4698 0001767  91.7218 268.4116 13.18684885163713
ONEWEB-0306             
1 49188U 21083C   25030.38602175  .00000054  00000+0  10537-3 0  9993
2 49188  87.9064  75.4568 0002007  98.5137 261.6223 13.18686594163758
ONEWEB-0307             
1 49189U 21083D   25030.46278595  .00000215  00000+0  55330-3 0  9997
2 49189  87.8888  60.2221 0002205  97.4191 262.7189 13.13470737164937
ONEWEB-0320             
1 49190U 21083E   25030.39234521  .00000088  00000+0  18920-3 0  9994
2 49190  87.9068  75.4833 0001930  96.2786 263.8566 13.18685035163718
ONEWEB-0321             
1 49191U 21083F   25030.47885489  .00000008  00000+0 -11447-4 0  9990
2 49191  87.9265  14.4559 0001912  93.0710 267.0642 13.20774494170471
ONEWEB-0322             
1 49192U 21083G   25030.53501074  .00000300  00000+0  78566-3 0  9991
2 49192  87.8885  60.1970 0002140 103.8960 256.2408 13.13469627164930
ONEWEB-0324             
1 49193U 21083H   25030.52986573  .00000109  00000+0  24417-3 0  9995
2 49193  87.9064  75.4355 0002012  90.3542 269.7821 13.18685788163751
ONEWEB-0325             
1 49194U 21083J   25030.53461178  .00000097  00000+0  21254-3 0  9998
2 49194  87.9069  75.4513 0001962  99.5812 260.5542 13.18683520163769
ONEWEB-0326             
1 49195U 21083K   25030.54884093  .00000080  00000+0  17023-3 0  9996
2 49195  87.9065  75.4420 0001651  86.1459 273.9862 13.18684689163756
ONEWEB-0327             
1 49196U 21083L   25030.39629478 -.00000010  00000+0 -59356-4 0  9995
2 49196  87.9065  75.4991 0001580  90.6919 269.4394 13.18685198163758
